GOES 1 (SMS-C) [-]      
1 08366U 75100A   23164.39958281 -.00000031  00000+0  00000+0 0  9990
2 08366   7.3924 291.1913 0001538 227.9661 132.8434  1.00229383174045
GOES 2 [-]              
1 10061U 77048A   23165.09840771 -.00000118  00000+0  00000+0 0  9996
2 10061   9.0226 303.3463 0010799  40.7690 318.2381  0.99400923112593
GOES 3 [-]              
1 10953U 78062A   23164.67008630 -.00000132  00000+0  00000+0 0  9992
2 10953   9.3846 308.1230 0003493 153.5127 220.7848  0.99365000117619
GOES 4 [-]              
1 11964U 80074A   23165.43779303  .00000046  00000+0  00000+0 0  9991
2 11964  10.3722 311.9503 0033408  86.1996  96.4926  0.99226848116728
GOES 5 [-]              
1 12472U 81049A   23165.44301840 -.00000193  00000+0  00000+0 0  9991
2 12472  11.3268 323.6232 0002160 153.1672 215.4236  1.00210937111946
GOES 6 [-]              
1 14050U 83041A   23164.41934209 -.00000115  00000+0  00000+0 0  9990
2 14050  11.9480 329.0260 0005028 147.5129 192.1156  1.00217634204983
GOES 7 [-]              
1 17561U 87022A   23164.87382240 -.00000373  00000+0  00000+0 0  9991
2 17561  13.9280 345.6562 0005814  81.9647 271.6127  0.99901563115970
GOES 8 [-]              
1 23051U 94022A   23164.78240721 -.00000088  00000+0  00000+0 0  9990
2 23051  13.4848  21.6487 0007849  53.1551 132.3120  0.98906107113251
GOES 9 [-]              
1 23581U 95025A   23164.48788153 -.00000284  00000+0  00000+0 0  9993
2 23581  12.9834  22.1222 0008299 102.3870 106.6994  0.98802796101891
GOES 10 [-]             
1 24786U 97019A   23164.68350969  .00000031  00000+0  00000+0 0  9997
2 24786  11.8328  28.4495 0026248 206.1353 160.4034  0.99121456 95173
GOES 11 [-]             
1 26352U 00022A   23164.34947941 -.00000135  00000+0  00000+0 0  9997
2 26352   9.4518  56.3957 0000893  35.6029 304.5282  0.99044741 41576
GOES 12 [-]             
1 26871U 01031A   23164.78632963  .00000047  00000+0  00000+0 0  9998
2 26871  10.1699  45.7615 0005684 352.3723 190.2168  0.99135990 79860
EWS-G1 (GOES 13) [+]    
1 29155U 06018A   23164.86161932  .00000040  00000+0  00000+0 0  9991
2 29155   1.5238  91.7974 0002602  83.9068  97.6310  1.00272987 32359
GOES 14 [B]             
1 35491U 09033A   23165.48848147 -.00000062  00000+0  00000+0 0  9995
2 35491   0.3318 105.8017 0005730 326.9408 256.9694  1.00272165 51133
GOES 15 [B]             
1 36411U 10008A   23165.46509740  .00000128  00000+0  00000+0 0  9995
2 36411   0.3535  95.9388 0000668   9.4769 163.6346  1.00159349 48632
GOES 16 [+]             
1 41866U 16071A   23165.43337229 -.00000246  00000+0  00000+0 0  9991
2 41866   0.0456 110.3468 0000191  24.1636 208.7709  1.00270855 24083
GOES 17 [+]             
1 43226U 18022A   23164.82851743 -.00000089  00000+0  00000+0 0  9990
2 43226   0.0321 154.7492 0001973 302.1942 358.4723  1.00271863 19402
GOES 18 [+]             
1 51850U 22021A   23164.96549799  .00000099  00000+0  00000+0 0  9996
2 51850   0.0473 148.0326 0000380 247.0651  77.4729  1.00271056  4782
